[{"OBJECT_NAME":"SITRO-AIS 8 (ANOKHIN)","OBJECT_ID":"2023-091AD","EPOCH":"2026-03-09T23:44:40.058592","MEAN_MOTION":15.29359179,"ECCENTRICITY":0.0012509,"INCLINATION":97.5169,"RA_OF_ASC_NODE":133.2823,"ARG_OF_PERICENTER":92.0171,"MEAN_ANOMALY":268.2501,"EPHEMERIS_TYPE":0,"CLASSIFICATION_TYPE":"U","NORAD_CAT_ID":57193,"ELEMENT_SET_NO":999,"REV_AT_EPOCH":14927,"BSTAR":0.00064982524,"MEAN_MOTION_DOT":0.00018494,"MEAN_MOTION_DDOT":0},{"OBJECT_NAME":"STARLINK-35928","OBJECT_ID":"2025-265N","EPOCH":"2026-03-09T22:34:01.919136","MEAN_MOTION":15.27614787,"ECCENTRICITY":0.00012239,"INCLINATION":42.9998,"RA_OF_ASC_NODE":276.3538,"ARG_OF_PERICENTER":276.2574,"MEAN_ANOMALY":83.8138,"EPHEMERIS_TYPE":0,"CLASSIFICATION_TYPE":"U","NORAD_CAT_ID":66528,"ELEMENT_SET_NO":999,"REV_AT_EPOCH":1715,"BSTAR":0.0011516534,"MEAN_MOTION_DOT":0.00031598,"MEAN_MOTION_DDOT":0}]
